SL-16 R/B               
1 25400U 98043G   26051.89237007  .00000060  00000+0  44198-4 0  9990
2 25400  98.8226   5.1398 0010862  65.5215 294.7096 14.26045528436596
SL-16 R/B               
1 25407U 98045B   26051.90377318  .00000097  00000+0  73066-4 0  9997
2 25407  71.0097 216.8725 0005864  36.8598 323.2928 14.16191073424728
ISS (ZARYA)             
1 25544U 98067A   26051.79705789  .00009624  00000+0  18780-3 0  9993
2 25544  51.6323 155.8543 0008571 116.6604 243.5263 15.48167199553715
CZ-4B R/B               
1 25732U 99025C   26052.15861834  .00000036  00000+0  38089-4 0  9995
2 25732  98.6662  96.8290 0037644  33.9781  34.9212 14.18261805385820
OKEAN-O                 
1 25860U 99039A   26052.15902285  .00000603  00000+0  85959-4 0  9996
2 25860  97.9481 112.2157 0001647  78.0742 282.0654 14.80306435431948
SL-16 R/B               
1 25861U 99039B   26052.15449039  .00000493  00000+0  69342-4 0  9995
2 25861  98.0005 111.2727 0013761 314.6478  45.3611 14.81706247434414
DELTA 2 R/B             
1 25876U 99041E   26051.30976164  .00001387  00000+0  26091-3 0  9990
2 25876  51.7662  10.6882 0502219 297.1100  57.9452 14.11770959360578
HELIOS 1B               
1 25977U 99064A   26052.16773734  .00001645  00000+0  18737-3 0  9995
2 25977  98.1713 313.9244 0002381  97.4692 262.6794 14.87624144682809
TERRA                   
1 25994U 99068A   26052.13435751  .00000366  00000+0  83615-4 0  9996
2 25994  97.9630 106.1985 0001519 198.4897 185.6594 14.60995248392669
SL-16 R/B               
1 26070U 00006B   26051.63220924  .00000039  00000+0  43952-4 0  9991
2 26070  71.0022 133.7044 0017850 213.8773 146.1211 14.15818419346149
TITAN 4B R/B            
1 26474U 00047B   26052.13108288  .00002852  00000+0  18355-3 0  9991
2 26474  67.9877  87.0683 0037574  55.4089 305.0595 15.09401742390415
ENVISAT                 
1 27386U 02009A   26051.85448799  .00000108  00000+0  48957-4 0  9990
2 27386  98.3700   5.8558 0001347  87.1886 331.5056 14.39030063256756
